SHIYAN-30 03            
1 68139U 26048A   26087.84714576  .00003047  00000+0  29961-3 0  9995
2 68139  35.0012  29.2500 0003191 358.4198   1.6497 14.91724073  2366
