{
  "norad_id": 68139,
  "name": "SHIYAN-30 03",
  "history": [
    {
      "epoch": "2026-03-28T20:19:53.393664",
      "apogee_km": 594.7843623439603,
      "perigee_km": 590.3346879241053,
      "latitude_deg": 23.370516378382355,
      "longitude_deg": -4.774007040308788,
      "semi_major_axis_km": 6970.6965251340325,
      "eccentricity": 0.00031917,
      "inclination_deg": 35.0012,
      "raan_deg": 29.25,
      "arg_perigee_deg": 358.4198,
      "mean_anomaly_deg": 1.6497,
      "mean_motion_rev_day": 14.91724073
    }
  ]
}